GLOBALSTAR M075 [+]     
1 37192U 10054E   24099.92636414 -.00000112  00000+0 -44129-4 0  9990
2 37192  51.9954  63.7635 0000513  62.8400  32.8373 12.62272114621166
GLOBALSTAR M073 [+]     
1 37193U 10054F   24099.90782167 -.00000067  00000+0  20312-3 0  9991
2 37193  52.0078 337.3110 0000845  89.8506 281.9171 12.62263384623049
GLOBALSTAR M083 [+]     
1 37739U 11033A   24099.84224296 -.00000064  00000+0  21929-3 0  9994
2 37739  51.9852 286.8352 0000721  80.1768 293.8461 12.62268127592360
GLOBALSTAR M088 [+]     
1 37740U 11033B   24100.00886497 -.00000079  00000+0  13946-3 0  9990
2 37740  51.9723 192.1828 0000509  94.7202  77.4069 12.62266764587565
GLOBALSTAR M091 [+]     
1 37741U 11033C   24099.99866865 -.00000072  00000+0  17700-3 0  9998
2 37741  51.9982 154.9923 0000374  64.3026   1.5731 12.62261363588354
GLOBALSTAR M085 [+]     
1 37742U 11033D   24099.77112106 -.00000093  00000+0  60955-4 0  9991
2 37742  51.9850 107.1071 0000436  47.7727 123.0462 12.62269451588835
GLOBALSTAR M081 [+]     
1 37743U 11033E   24099.93566715 -.00000084  00000+0  11301-3 0  9999
2 37743  51.9941 109.1248 0000558  60.9265  18.1441 12.62264031589004
GLOBALSTAR M089 [+]     
1 37744U 11033F   24099.88284469 -.00000110  00000+0 -35658-4 0  9990
2 37744  51.9937  63.5947 0000615 105.3937 272.6977 12.62261700590095
